HAIYANG-2C              
1 46469U 20066A   25214.20124995 -.00000030  00000+0  46929-4 0  9996
2 46469  65.9967 289.4910 0013060 286.7553  73.2082 13.83374342245665
HJ-2A                   
1 46478U 20067A   25214.18525363  .00000776  00000+0  11857-3 0  9995
2 46478  97.9120 294.5898 0002599 170.8065 189.3193 14.76510059261186
HJ-2B                   
1 46479U 20067B   25214.22140380  .00000760  00000+0  11633-3 0  9998
2 46479  97.9172 295.4209 0001207  60.7576 299.3754 14.76510807261196
GONETS-M 17             
1 46486U 20068A   25214.11391543  .00000030  00000+0  14794-3 0  9995
2 46486  82.4982 185.9762 0023613  14.9735 345.2039 12.42896573219718
GONETS-M 18             
1 46487U 20068B   25214.16220883  .00000037  00000+0  19702-3 0  9990
2 46487  82.4937 185.1922 0020727  12.2629 347.8951 12.42885606219711
GONETS-M 19             
1 46488U 20068C   25213.89525529  .00000052  00000+0  30499-3 0  9998
2 46488  82.4962 185.7408 0014662  28.3197 331.8677 12.42860260219586
DEKART                  
1 46493U 20068H   25213.91698086  .00010266  00000+0  37740-3 0  9990
2 46493  97.8611 197.8128 0010041 341.3399  18.7470 15.28063427266867
NORBI                   
1 46494U 20068J   25213.90475722  .00013010  00000+0  41212-3 0  9999
2 46494  97.8587 200.7829 0008212 330.8014  29.2767 15.32848300267050
SALSAT                  
1 46495U 20068K   25213.76684768  .00008321  00000+0  35251-3 0  9991
2 46495  97.8641 194.2861 0010415 347.2257  12.8713 15.23388293266625
ICEYE-X7                
1 46496U 20068L   25214.16646084  .00011161  00000+0  48569-3 0  9998
2 46496  97.7079 164.2692 0009673  19.2862 340.8738 15.22379063266109
ICEYE-X6                
1 46497U 20068M   25214.13043956  .00005438  00000+0  42828-3 0  9997
2 46497  98.0703 188.7988 0006408  78.4208 281.7734 15.01227995265304
NETSAT-4                
1 46504U 20068U   25213.74670385  .00014200  00000+0  46844-3 0  9993
2 46504  97.8486 194.6291 0007513  32.7586 327.4119 15.31527433266681
NETSAT-3                
1 46505U 20068V   25213.85666733  .00012368  00000+0  42775-3 0  9990
2 46505  97.8488 193.5596 0007759  43.5479 316.6372 15.30029364266650
NETSAT-1                
1 46506U 20068W   25213.88367557  .00010475  00000+0  42269-3 0  9991
2 46506  97.8515 191.0167 0007873  56.5226 303.6762 15.24973302266483
NETSAT-2                
1 46507U 20068X   25213.68389646  .00015696  00000+0  52205-3 0  9994
2 46507  97.8485 194.0197 0006929  60.2966 299.8963 15.31241114266611
STARLINK-1648           
1 46533U 20070B   25214.02020767  .00003513  00000+0  25462-3 0  9991
2 46533  53.0531  82.7551 0001422  88.0425 272.0727 15.06399883266412
STARLINK-1663           
1 46535U 20070D   25213.65898333  .00002195  00000+0  16620-3 0  9994
2 46535  53.0536  84.3756 0001288  89.7636 270.3500 15.06396050266330
STARLINK-1672           
1 46537U 20070F   25213.08766975 -.00000752  00000+0 -31578-4 0  9998
2 46537  53.0557  86.9420 0001448  89.7991 270.3164 15.06394140266258
STARLINK-1678           
1 46538U 20070G   25214.25002315 -.00017032  00000+0 -55511-3 0  9991
2 46538  53.0617  80.1333 0000873  81.3754 325.7225 15.30720540266157
STARLINK-1687           
1 46541U 20070K   25212.97894330  .00001543  00000+0  12251-3 0  9990
2 46541  53.0548  67.4285 0001448  84.3535 275.7619 15.06390418266518
STARLINK-1692           
1 46542U 20070L   25212.97848956  .00105761  00000+0  26009-2 0  9996
2 46542  53.0405  62.0045 0004514 205.4671 154.6111 15.39804164266594
STARLINK-1693           
1 46543U 20070M   25214.25002315  .00723369  23520-3  17436-2 0  9991
2 46543  53.0382   2.2199 0011297 277.6391 283.0057 15.95760573267562
STARLINK-1700           
1 46549U 20070T   25213.95331550  .00063327  00000+0  18999-2 0  9999
2 46549  53.0513  60.9377 0003155 143.5850 216.5366 15.33887377266408
STARLINK-1664           
1 46553U 20070X   25213.96030738  .00008095  00000+0  56156-3 0  9998
2 46553  53.0545  53.0304 0001433  96.8561 263.2591 15.06409516266816
STARLINK-1676           
1 46556U 20070AA  25213.60737826  .00000230  00000+0  34309-4 0  9994
2 46556  53.0548  84.6107 0001263  94.4119 265.7015 15.06402173266334
STARLINK-1679           
1 46557U 20070AB  25213.98923739  .00001351  00000+0  10959-3 0  9995
2 46557  53.0539  67.2648 0001302  92.1202 267.9936 15.06393118266620
STARLINK-1680           
1 46558U 20070AC  25213.99025383  .00000753  00000+0  69432-4 0  9991
2 46558  53.0543  67.8912 0001433 114.5558 245.5580 15.06403222266618
STARLINK-1681           
1 46559U 20070AD  25213.53072172  .00061906  00000+0  25241-2 0  9995
2 46559  53.0677  42.5715 0006162  65.6519 294.5121 15.23871408266917
STARLINK-1714           
1 46562U 20070AG  25213.98772924  .00035941  00000+0  18405-2 0  9994
2 46562  53.0576  61.1470 0003243 177.3844 182.7167 15.16288143266393
STARLINK-1730           
1 46563U 20070AH  25212.97211804  .00037415  00000+0  20244-2 0  9990
2 46563  53.0528  64.9869 0002990 138.6040 221.5179 15.14320677266550
STARLINK-1733           
1 46564U 20070AJ  25213.99256769  .00001607  00000+0  12677-3 0  9999
2 46564  53.0543  62.9524 0001424  84.3465 275.7686 15.06400915266686
STARLINK-1735           
1 46565U 20070AK  25213.96306754  .00006443  00000+0  45093-3 0  9998
2 46565  53.0546  63.0144 0001294  93.9972 266.1165 15.06406079266362
STARLINK-1740           
1 46566U 20070AL  25213.61658868 -.00000188  00000+0  62818-5 0  9994
2 46566  53.0546  64.5649 0001182  78.2172 281.8950 15.06408022266291
STARLINK-1741           
1 46567U 20070AM  25212.98261184 -.00000276  00000+0  35979-6 0  9992
2 46567  53.0533  67.4112 0001371 115.7684 244.3446 15.06397737266520
STARLINK-1531           
1 46572U 20070AS  25213.03512201 -.00000285  00000+0 -25004-6 0  9993
2 46572  53.0562  87.1642 0001591  87.1774 272.9397 15.06390398266248
STARLINK-1660           
1 46574U 20070AU  25213.91668981  .00401966  00000+0  25890-2 0  9997
2 46574  53.0363  20.1802 0006570 286.8407 231.1993 15.74449048  6015
STARLINK-1675           
1 46575U 20070AV  25213.71469250  .00077458  00000+0  12053-2 0  9996
2 46575  53.0500  10.8932 0002324 144.2731 215.8435 15.53246199267376
STARLINK-1677           
1 46576U 20070AW  25212.99136798 -.00000858  00000+0 -38688-4 0  9990
2 46576  53.0538  72.3762 0001574 106.6369 253.4793 15.06391722266451
STARLINK-1683           
1 46578U 20070AY  25213.49521709  .00060488  00000+0  24787-2 0  9994
2 46578  53.0290  42.1493 0003013  33.4060 326.7126 15.23723224266627
STARLINK-1705           
1 46579U 20070AZ  25214.06959929  .00062545  00000+0  19970-2 0  9992
2 46579  53.0530  65.4480 0000680 157.7909 202.3121 15.31912296266620
STARLINK-1712           
1 46581U 20070BB  25213.20790002  .00063935  00000+0  22151-2 0  9994
2 46581  53.0557  62.8301 0002901 208.8744 151.2094 15.29260921266605
STARLINK-1728           
1 46582U 20070BC  25213.00104364 -.00000671  00000+0 -26170-4 0  9990
2 46582  53.0533  67.3271 0001116  90.2215 269.8902 15.06397625266521
STARLINK-1736           
1 46585U 20070BF  25213.98523245  .00003926  00000+0  28231-3 0  9996
2 46585  53.0540  63.2602 0001357 106.5729 253.5409 15.06396423266362
STARLINK-1746           
1 46588U 20070BJ  25213.98886973  .00002397  00000+0  17975-3 0  9993
2 46588  53.0541  62.8945 0001226 101.3749 258.7378 15.06400664266681
GAOFEN-13 01            
1 46610U 20071A   25213.43914181 -.00000355  00000+0  00000+0 0  9993
2 46610   0.4257  86.1054 0023355 119.1421  21.1937  1.00273231 17716
STARLINK-1716           
1 46672U 20073C   25214.08239720 -.00000397  00000+0 -77744-5 0  9996
2 46672  53.0541 147.4766 0001310  93.7427 266.3712 15.06404160264519
STARLINK-1718           
1 46674U 20073E   25214.04185041 -.00000498  00000+0 -14518-4 0  9991
2 46674  53.0541 147.6595 0001329  80.6934 279.4205 15.06400621264500
STARLINK-1773           
1 46679U 20073K   25214.12985935  .00716695  25092-3  12503-2 0  9998
2 46679  53.0314  77.1517 0002542 155.9134 345.7235 16.01615418265509
STARLINK-1775           
1 46681U 20073M   25213.88013319  .00000155  00000+0  29326-4 0  9999
2 46681  53.0536 163.3828 0001352  80.7296 279.3846 15.06405546263784
STARLINK-1781           
1 46685U 20073R   25214.17504740 -.00000302  00000+0 -13696-5 0  9999
2 46685  53.0539 162.3284 0001454  92.7331 267.3824 15.06400541264304
STARLINK-1784           
1 46687U 20073T   25213.18856912 -.00002243  00000+0 -13177-3 0  9990
2 46687  53.0560 131.4843 0001577 104.4107 255.7057 15.06394358264178
STARLINK-1788           
1 46689U 20073V   25214.13822467 -.00006594  00000+0 -42377-3 0  9993
2 46689  53.0552 162.8784 0002145  58.3852 301.7346 15.06434216264293
STARLINK-1789           
1 46690U 20073W   25214.07594934 -.00001279  00000+0 -66960-4 0  9993
2 46690  53.0545 137.5107 0001257 106.5033 253.6094 15.06411520264642
STARLINK-1790           
1 46691U 20073X   25214.14137414 -.00000983  00000+0 -47114-4 0  9999
2 46691  53.0541 147.2092 0001510  87.7417 272.3745 15.06398275264516
STARLINK-1792           
1 46693U 20073Z   25213.91668981  .00229410  00000+0  15997-2 0  9991
2 46693  53.0192  73.8314 0003705 163.6980 135.2724 15.73118249  5969
STARLINK-1795           
1 46696U 20073AC  25214.05475349 -.00000586  00000+0 -20440-4 0  9998
2 46696  53.0550 127.6015 0001282 100.3287 259.7846 15.06407064264788
STARLINK-1797           
1 46698U 20073AE  25214.03455252 -.00000560  00000+0 -18710-4 0  9998
2 46698  53.0548 148.2693 0001407  92.7903 267.3247 15.06405969264474
STARLINK-1799           
1 46699U 20073AF  25213.25306856 -.00002192  00000+0 -12832-3 0  9998
2 46699  53.0536 151.1957 0001813  84.6459 275.4736 15.06390084263906
STARLINK-1800           
1 46700U 20073AG  25213.52260319  .00001443  00000+0  11577-3 0  9995
2 46700  53.0523 164.9877 0001786  93.5337 266.5856 15.06391469263734
